OBJECTID,Reg_Acro,Acronym,Shelter Name,Status,GIS_ID,Food_Boxe,Food_Cabl,Food_Pole,State,County,Region,District,Trail_Club,Ownership,Latitude,Longitude,height(m),Source
1,NERO,MATC,Chairback Gap Lean-to Shelter,Official A.T. Shelter,SH78,0,0,0,Maine,PISCATAQUIS,New England,Congressional District 2,Maine Appalachian Trail Club,FEDERAL FEE - NPS APPA,45.45317145,-69.2624151,588.602,2015-2017 Trail Inventory using Trimble GPS Equipment
2,NERO,GMC,Kid Gore Shelter,Official A.T. Shelter,SH273,0,0,0,Vermont,BENNINGTON,New England,Congressional District (at Large),Green Mountain Club,FEDERAL FEE - USFS GREEN MTN NF,43.01412143,-73.04293368,819.622,2015-2017 Trail Inventory using Trimble GPS Equipment
3,NERO,MATC,Hall Mtn Lean-to Shelter,Official A.T. Shelter,SH30,0,0,0,Maine,OXFORD,New England,Congressional District 2,Maine Appalachian Trail Club,FEDERAL FEE - NPS APPA,44.70090024,-70.82475977,775.938,2015-2017 Trail Inventory using Trimble GPS Equipment
4,NERO,GMC,Stratton Pond Shelter,Official A.T. Shelter,SH205,0,0,0,Vermont,WINDHAM,New England,Congressional District (at Large),Green Mountain Club,FEDERAL FEE - USFS GREEN MTN NF,43.10052774,-72.96404754,792.508,2015-2017 Trail Inventory using Trimble GPS Equipment
5,NERO,MATC,Logan Brook Lean-to Shelter,Official A.T. Shelter,SH176,0,0,0,Maine,PISCATAQUIS,New England,Congressional District 2,Maine Appalachian Trail Club,FEDERAL FEE - NPS APPA,45.56104047,-69.23476958,706.936,2015-2017 Trail Inventory using Trimble GPS Equipment
6,NERO,AMC,Eliza Brook Shelter,Official A.T. Shelter,SH292,0,0,0,New Hampshire,GRAFTON,New England,Congressional District 2,Appalachian Mountain Club,FEDERAL FEE - USFS WHITE MTN NF,44.10081104,-71.74237088,701.518,2015-2017 Trail Inventory using Trimble GPS Equipment
7,NERO,MATC,Horns Pond Lean-to Shelter 2,Official A.T. Shelter,SH173,0,0,0,Maine,FRANKLIN,New England,Congressional District 2,Maine Appalachian Trail Club,STATE FEE - STATE OF MAINE - BIGELOW PRESERVE,45.14385018,-70.32967078,937.856,2015-2017 Trail Inventory using Trimble GPS Equipment
8,NERO,GMC,Bromley Shelter,Official A.T. Shelter,SH201,0,0,0,Vermont,BENNINGTON,New England,Congressional District (at Large),Green Mountain Club,FEDERAL FEE - USFS GREEN MTN NF,43.22240836,-72.95050383,755.405,2015-2017 Trail Inventory using Trimble GPS Equipment
9,NERO,GMC,Goddard Shelter,Official A.T. Shelter,SH274,0,0,0,Vermont,BENNINGTON,New England,Congressional District (at Large),Green Mountain Club,FEDERAL FEE - USFS GREEN MTN NF,42.97411322,-73.07211546,1056.712,2015-2017 Trail Inventory using Trimble GPS Equipment
10,NERO,AMC-BERK,Mt. Wilcox South Shelter 1,Official A.T. Shelter,SH27,0,0,0,Massachusetts,BERKSHIRE,New England,Congressional District 1,AMC - Berkshire Chapter,STATE FEE - STATE OF MASSACHUSETTS - DEM - ARTHUR WHARTON SWANN SF,42.20772071,-73.26826481,533.899,2015-2017 Trail Inventory using Trimble GPS Equipment
11,NERO,MATC,Little Bigelow Lean-to Shelter,Official A.T. Shelter,SH31,0,0,0,Maine,SOMERSET,New England,Congressional District 2,Maine Appalachian Trail Club,STATE FEE - STATE OF MAINE - BIGELOW PRESERVE,45.13920376,-70.19116476,531.911,2015-2017 Trail Inventory using Trimble GPS Equipment
12,NERO,MATC,Frye Notch Lean-to Shelter,Official A.T. Shelter,SH77,0,0,0,Maine,OXFORD,New England,Congressional District 2,Maine Appalachian Trail Club,FEDERAL FEE - NPS APPA,44.62796459,-70.90042515,680.15,2015-2017 Trail Inventory using Trimble GPS Equipment
13,NERO,GMC,Stony Brook Shelter,Official A.T. Shelter,SH270,0,0,0,Vermont,WINDSOR,New England,Congressional District (at Large),Green Mountain Club,FEDERAL FEE - USFS GREEN MTN NF,43.69181208,-72.73016847,517.614,2015-2017 Trail Inventory using Trimble GPS Equipment
14,NERO,AMC,Garfield Ridge Shelter,Official A.T. Shelter,SH142,2,0,0,New Hampshire,GRAFTON,New England,Congressional District 2,Appalachian Mountain Club,FEDERAL FEE - USFS WHITE MTN NF,44.19072273,-71.60835475,1196.5,2015-2017 Trail Inventory using Trimble GPS Equipment
15,NERO,MATC,Carl A. Newhall Lean-to Shelter,Official A.T. Shelter,SH175,0,0,0,Maine,PISCATAQUIS,New England,Congressional District 2,Maine Appalachian Trail Club,FEDERAL FEE - NPS APPA,45.53108165,-69.31511587,568.427,2015-2017 Trail Inventory using Trimble GPS Equipment
16,NERO,AMC-BERK,Mt. Wilcox North Shelter,Official A.T. Shelter,SH28,0,0,0,Massachusetts,BERKSHIRE,New England,Congressional District 1,AMC - Berkshire Chapter,STATE FEE - STATE OF MASSACHUSETTS - DEM - BEARTOWN SF,42.2210691,-73.25020833,569.495,2015-2017 Trail Inventory using Trimble GPS Equipment
17,NERO,AMC-BERK,October Mtn Shelter,Official A.T. Shelter,SH267,0,0,0,Massachusetts,BERKSHIRE,New England,Congressional District 1,AMC - Berkshire Chapter,STATE FEE - STATE OF MASSACHUSETTS - DEM - OCTOBER MTN SF,42.35500646,-73.15415727,557.562,2015-2017 Trail Inventory using Trimble GPS Equipment
18,NERO,GMC,Thistle Hill Shelter,Official A.T. Shelter,SH35,0,0,0,Vermont,WINDSOR,New England,Congressional District (at Large),Green Mountain Club,FEDERAL FEE - USFS GREEN MTN NF,43.69524119,-72.47535447,498.147,2015-2017 Trail Inventory using Trimble GPS Equipment
19,NERO,MATC,Poplar Ridge Lean-to Shelter,Official A.T. Shelter,SH84,0,0,0,Maine,FRANKLIN,New England,Congressional District 2,Maine Appalachian Trail Club,FEDERAL FEE - NPS APPA,44.9700644,-70.44592973,876.976,2015-2017 Trail Inventory using Trimble GPS Equipment
20,NERO,MATC,Bald Mtn Brook Lean-to Shelter,Official A.T. Shelter,SH279,0,0,0,Maine,SOMERSET,New England,Congressional District 2,Maine Appalachian Trail Club,FEDERAL FEE - NPS APPA,45.25844222,-69.79961584,389.107,2015-2017 Trail Inventory using Trimble GPS Equipment
21,NERO,MATC,Hurd Brook Lean-to Shelter,Official A.T. Shelter,SH302,0,0,0,Maine,PISCATAQUIS,New England,Congressional District 2,Maine Appalachian Trail Club,STATE EASEMENT - STATE OF MAINE - OWNER = PRIVATE,45.8184923,-69.01847943,196.767,2015-2017 Trail Inventory using Trimble GPS Equipment
22,NERO,GMC,GMC Caretaker Hut Shelter,Official A.T. Shelter,SH128,0,0,0,Vermont,WINDHAM,New England,Congressional District (at Large),Green Mountain Club,FEDERAL FEE - USFS GREEN MTN NF,43.08589927,-72.92484272,1170.104,2015-2017 Trail Inventory using Trimble GPS Equipment
23,NERO,GMC,William B. Douglas Shelter,Official A.T. Shelter,SH204,0,0,0,Vermont,BENNINGTON,New England,Congressional District (at Large),Green Mountain Club,FEDERAL FEE - USFS GREEN MTN NF,43.14455074,-72.99091339,648.502,2015-2017 Trail Inventory using Trimble GPS Equipment
24,NERO,AMC-BERK,Mt. Wilcox South Shelter 2,Official A.T. Shelter,NA,0,0,0,Massachusetts,BERKSHIRE,New England,Congressional District 1,AMC - Berkshire Chapter,STATE FEE - STATE OF MASSACHUSETTS - DEM - ARTHUR WHARTON SWANN SF,42.2071972,-73.26730111,526.835,2015-2017 Trail Inventory using Trimble GPS Equipment
25,NERO,MATC,West Carry Pond Lean-to Shelter,Official A.T. Shelter,SH209,0,0,0,Maine,SOMERSET,New England,Congressional District 2,Maine Appalachian Trail Club,FEDERAL FEE - NPS APPA,45.15805151,-70.09975665,390.647,2015-2017 Trail Inventory using Trimble GPS Equipment
26,NERO,MATC,Potaywadjo Spring Lean-to Shelter,Official A.T. Shelter,SH300,0,0,0,Maine,PISCATAQUIS,New England,Congressional District 2,Maine Appalachian Trail Club,FEDERAL FEE - NPS APPA,45.70653636,-69.00738905,171.072,2015-2017 Trail Inventory using Trimble GPS Equipment
27,NERO,DOC,Velvet Rocks Shelter,Official A.T. Shelter,SH303,0,0,0,New Hampshire,GRAFTON,New England,Congressional District 2,Dartmouth Outing Club,FEDERAL FEE - USFS WHITE MTN NF,43.70252677,-72.26471005,274.811,2015-2017 Trail Inventory using Trimble GPS Equipment
28,NERO,MATC,Wadleigh Stream Lean-to Shelter,Official A.T. Shelter,SH301,0,0,0,Maine,PISCATAQUIS,New England,Congressional District 2,Maine Appalachian Trail Club,FEDERAL FEE - NPS APPA,45.74698217,-69.14449933,167.252,2015-2017 Trail Inventory using Trimble GPS Equipment
29,NERO,DOC,Moose Mtn Shelter,Official A.T. Shelter,SH22,0,0,0,New Hampshire,GRAFTON,New England,Congressional District 2,Dartmouth Outing Club,FEDERAL FEE - USFS WHITE MTN NF,43.72719739,-72.14925752,614.07,2015-2017 Trail Inventory using Trimble GPS Equipment
30,NERO,MATC,Pierce Pond Lean-to Shelter,Official A.T. Shelter,SH146,0,0,0,Maine,SOMERSET,New England,Congressional District 2,Maine Appalachian Trail Club,FEDERAL FEE - NPS APPA,45.2402802,-70.05543177,325.242,2015-2017 Trail Inventory using Trimble GPS Equipment
31,NERO,AMC-CT,Stewart Hollow Brook Shelter,Official A.T. Shelter,SH203,0,0,0,Connecticut,LITCHFIELD,New England,Congressional District 5,AMC - Connecticut Chapter,FEDERAL FEE - NPS APPA,41.77929829,-73.41849627,105.121,2015-2017 Trail Inventory using Trimble GPS Equipment
32,NERO,MATC,Horseshoe Canyon Lean-to Shelter,Official A.T. Shelter,SH208,0,0,0,Maine,PISCATAQUIS,New England,Congressional District 2,Maine Appalachian Trail Club,FEDERAL FEE - NPS APPA,45.28267767,-69.62767359,238.95,2015-2017 Trail Inventory using Trimble GPS Equipment
33,NERO,AMC-CT,Brassie Brook Shelter,Official A.T. Shelter,SH29,1,0,0,Connecticut,LITCHFIELD,New England,Congressional District 5,AMC - Connecticut Chapter,FEDERAL FEE - NPS APPA,42.02840647,-73.45330248,508.162,2015-2017 Trail Inventory using Trimble GPS Equipment
34,NERO,AMC-BERK,Glen Brook Shelter,Official A.T. Shelter,SH82,1,0,0,Massachusetts,BERKSHIRE,New England,Congressional District 1,AMC - Berkshire Chapter,STATE FEE - STATE OF MASSACHUSETTS - DEM - MT EVERETT STATE RESERVATION,42.111071,-73.42767569,534.856,2015-2017 Trail Inventory using Trimble GPS Equipment
35,NERO,GMC,Melville Nauheim Shelter,Official A.T. Shelter,SH87,0,0,0,Vermont,BENNINGTON,New England,Congressional District (at Large),Green Mountain Club,FEDERAL FEE - USFS - GREEN MTN NF,42.88786174,-73.09556663,720.704,2015-2017 Trail Inventory using Trimble GPS Equipment
36,NERO,AMC-CT,Ten Mile River Shelter,Official A.T. Shelter,SH76,0,0,0,Connecticut,FAIRFIELD,New England,Congressional District 5,AMC - Connecticut Chapter,FEDERAL FEE - NPS APPA,41.66517109,-73.50963469,67.022,2015-2017 Trail Inventory using Trimble GPS Equipment
37,NERO,MATC,Rainbow Stream Lean-to Shelter,Official A.T. Shelter,SH33,0,0,0,Maine,PISCATAQUIS,New England,Congressional District 2,Maine Appalachian Trail Club,STATE EASEMENT - STATE OF MAINE - OWNER = PRIVATE,45.79906666,-69.17053247,299.439,2015-2017 Trail Inventory using Trimble GPS Equipment
38,NERO,MATC,Spaulding Mtn Lean-to Shelter,Official A.T. Shelter,SH298,0,0,0,Maine,FRANKLIN,New England,Congressional District 2,Maine Appalachian Trail Club,FEDERAL FEE - NPS APPA,44.99576229,-70.34134128,932.976,2015-2017 Trail Inventory using Trimble GPS Equipment
39,NERO,GMC,Cooper Lodge Shelter,Official A.T. Shelter,SH172,0,0,0,Vermont,RUTLAND,New England,Congressional District (at Large),Green Mountain Club,FEDERAL FEE - USFS GREEN MTN NF,43.60600069,-72.82249503,1159.554,2015-2017 Trail Inventory using Trimble GPS Equipment
40,NERO,AMC,Gentian Pond Shelter,Official A.T. Shelter,SH148,1,0,0,New Hampshire,COOS,New England,Congressional District 2,Appalachian Mountain Club,FEDERAL FEE - USFS WHITE MTN NF,44.45179936,-71.06940187,633.995,2015-2017 Trail Inventory using Trimble GPS Equipment
41,NERO,AMC-CT,Riga Shelter,Official A.T. Shelter,SH125,0,0,0,Connecticut,LITCHFIELD,New England,Congressional District 5,AMC - Connecticut Chapter,FEDERAL FEE - NPS APPA,42.01564032,-73.45195425,481.952,2015-2017 Trail Inventory using Trimble GPS Equipment
42,NERO,AMC-BERK,The Hemlocks Shelter,Official A.T. Shelter,SH81,1,0,0,Massachusetts,BERKSHIRE,New England,Congressional District 1,AMC - Berkshire Chapter,STATE FEE - STATE OF MASSACHUSETTS - DEM - MT EVERETT STATE RESERVATION,42.1097152,-73.42912075,568.361,2015-2017 Trail Inventory using Trimble GPS Equipment
43,NERO,MATC,Cloud Pond Lean-to Shelter,Official A.T. Shelter,SH79,0,0,0,Maine,PISCATAQUIS,New England,Congressional District 2,Maine Appalachian Trail Club,STATE FEE - STATE OF MAINE,45.4180961,-69.35382647,713.5,2015-2017 Trail Inventory using Trimble GPS Equipment
44,NERO,MATC,Pleasant Pond Lean-to Shelter,Official A.T. Shelter,SH297,0,0,0,Maine,SOMERSET,New England,Congressional District 2,Maine Appalachian Trail Club,FEDERAL FEE - NPS APPA,45.27120969,-69.9167401,380.312,2015-2017 Trail Inventory using Trimble GPS Equipment
45,NERO,AMC,Full Goose Shelter,Official A.T. Shelter,SH282,1,0,0,Maine,OXFORD,New England,Congressional District 2,Appalachian Mountain Club,STATE FEE - STATE OF MAINE,44.52516904,-70.98088217,892.259,2015-2017 Trail Inventory using Trimble GPS Equipment
46,NERO,AMC-CT,Mt. Algo Shelter,Official A.T. Shelter,SH83,0,0,0,Connecticut,LITCHFIELD,New England,Congressional District 5,AMC - Connecticut Chapter,FEDERAL FEE - NPS APPA,41.73177904,-73.49635796,177.955,2015-2017 Trail Inventory using Trimble GPS Equipment
47,NERO,GMC,Little Rock Pond Shelter,Official A.T. Shelter,SH318,0,0,0,Vermont,RUTLAND,New England,Congressional District (at Large),Green Mountain Club,FEDERAL FEE - USFS GREEN MTN NF,43.39875426,-72.95478491,447.438,2015-2017 Trail Inventory using Trimble GPS Equipment
48,NERO,GMC,Churchhill Scott Shelter,Official A.T. Shelter,SH171,0,0,0,Vermont,RUTLAND,New England,Congressional District (at Large),Green Mountain Club,FEDERAL FEE - USFS GREEN MTN NF,43.64496256,-72.85333941,768.666,2015-2017 Trail Inventory using Trimble GPS Equipment
49,NERO,GMC,Minerva Hinchey Shelter,Official A.T. Shelter,SH134,0,0,0,Vermont,RUTLAND,New England,Congressional District (at Large),Green Mountain Club,FEDERAL FEE - USFS - GREEN MTN NF,43.4878613,-72.92454756,464.122,2015-2017 Trail Inventory using Trimble GPS Equipment
50,NERO,MATC,Piazza Rock Lean-to Shelter,Official A.T. Shelter,SH296,0,0,0,Maine,FRANKLIN,New England,Congressional District 2,Maine Appalachian Trail Club,FEDERAL FEE - NPS APPA,44.90418103,-70.53000737,618.358,2015-2017 Trail Inventory using Trimble GPS Equipment
51,NERO,GMC,Spruce Peak Shelter,Official A.T. Shelter,SH21,0,0,0,Vermont,BENNINGTON,New England,Congressional District (at Large),Green Mountain Club,FEDERAL FEE - USFS GREEN MTN NF,43.17859464,-72.99520474,634.815,2015-2017 Trail Inventory using Trimble GPS Equipment
52,NERO,MATC,Sabbath Day Pond Lean-to Shelter,Official A.T. Shelter,SH295,0,0,0,Maine,FRANKLIN,New England,Congressional District 2,Maine Appalachian Trail Club,STATE FEE - STATE OF MAINE,44.84092816,-70.66213964,708.01,2015-2017 Trail Inventory using Trimble GPS Equipment
53,NERO,GMC,Lost Pond Shelter,Official A.T. Shelter,SH85,0,0,0,Vermont,RUTLAND,New England,Congressional District (at Large),Green Mountain Club,FEDERAL FEE - USFS GREEN MTN NF,43.3475878,-72.95306746,644.355,2015-2017 Trail Inventory using Trimble GPS Equipment
54,NERO,AMC,Guyot Shelter,Official A.T. Shelter,SH149,2,0,0,New Hampshire,GRAFTON,New England,Congressional District 2,Appalachian Mountain Club,FEDERAL FEE - USFS WHITE MTN NF,44.16103386,-71.53501217,1235.326,2015-2017 Trail Inventory using Trimble GPS Equipment
55,NERO,GMC,Congdon Shelter,Official A.T. Shelter,SH34,0,0,0,Vermont,BENNINGTON,New England,Congressional District (at Large),Green Mountain Club,FEDERAL FEE - USFS GREEN MTN NF,42.8481131,-73.10998756,603.898,2015-2017 Trail Inventory using Trimble GPS Equipment
56,NERO,MATC,Moxie Bald Lean-to Shelter,Official A.T. Shelter,SH280,0,0,0,Maine,SOMERSET,New England,Congressional District 2,Maine Appalachian Trail Club,FEDERAL FEE - NPS APPA,45.2706762,-69.74531952,349.134,2015-2017 Trail Inventory using Trimble GPS Equipment
57,NERO,GMC,Pico Camp Shelter,Official A.T. Shelter,SH132,0,0,0,Vermont,RUTLAND,New England,Congressional District (at Large),Green Mountain Club,CONSERVATION EASEMENT - GREEN MTN CLUB - OWNER = PRIVATE,43.63909637,-72.83047765,1037.736,2015-2017 Trail Inventory using Trimble GPS Equipment
58,NERO,DOC,Hexacuba Shelter,Official A.T. Shelter,SH278,0,0,0,New Hampshire,GRAFTON,New England,Congressional District 2,Dartmouth Outing Club,FEDERAL FEE - USFS WHITE MTN NF,43.87620591,-72.02683514,656.608,2015-2017 Trail Inventory using Trimble GPS Equipment
59,NERO,MATC,Long Pond Stream Lean-to Shelter,Official A.T. Shelter,SH80,0,0,0,Maine,PISCATAQUIS,New England,Congressional District 2,Maine Appalachian Trail Club,STATE FEE - STATE OF MAINE,45.42114917,-69.41023628,254.905,2015-2017 Trail Inventory using Trimble GPS Equipment
60,NERO,AMC,Ethan Pond Shelter,Official A.T. Shelter,SH290,1,0,0,New Hampshire,GRAFTON,New England,Congressional District 2,Appalachian Mountain Club,FEDERAL FEE - USFS WHITE MTN NF,44.17717515,-71.42679658,855.009,2015-2017 Trail Inventory using Trimble GPS Equipment
61,NERO,AMC,Imp Shelter,Official A.T. Shelter,SH288,0,0,0,New Hampshire,COOS,New England,Congressional District 2,Appalachian Mountain Club,FEDERAL FEE - USFS WHITE MTN NF,44.32899208,-71.15017933,946.623,2015-2017 Trail Inventory using Trimble GPS Equipment
62,NERO,GMC,Winturri Shelter,Official A.T. Shelter,SH24,0,0,0,Vermont,WINDSOR,New England,Congressional District (at Large),Green Mountain Club,FEDERAL FEE - USFS GREEN MTN NF,43.66225922,-72.62203583,563.321,2015-2017 Trail Inventory using Trimble GPS Equipment
63,NERO,AMC-BERK,Wilbur Clearing Shelter,Official A.T. Shelter,SH181,0,0,0,Massachusetts,BERKSHIRE,New England,Congressional District 1,AMC - Berkshire Chapter,STATE FEE - STATE OF MASSACHUSETTS - DEM - MT GREYLOCK STATE RESERVATION,42.66780057,-73.17012086,644.482,2015-2017 Trail Inventory using Trimble GPS Equipment
64,NERO,GMC,Happy Hill Shelter,Official A.T. Shelter,SH200,0,0,0,Vermont,WINDSOR,New England,Congressional District (at Large),Green Mountain Club,FEDERAL FEE - USFS GREEN MTN NF,43.72398181,-72.36521944,399.456,2015-2017 Trail Inventory using Trimble GPS Equipment
65,NERO,DOC,Jeffers Brook Shelter,Official A.T. Shelter,SH25,0,0,0,New Hampshire,GRAFTON,New England,Congressional District 2,Dartmouth Outing Club,FEDERAL FEE - USFS WHITE MTN NF,43.99661401,-71.88894353,374.974,2015-2017 Trail Inventory using Trimble GPS Equipment
66,NERO,GMC,Clarendon Shelter,Official A.T. Shelter,SH294,0,0,0,Vermont,RUTLAND,New England,Congressional District (at Large),Green Mountain Club,PRIVATE LAND,43.52367012,-72.91264682,358.905,2015-2017 Trail Inventory using Trimble GPS Equipment
67,NERO,MATC,Horns Pond Day Use Shelter,Official A.T. Shelter,SH147,0,0,0,Maine,FRANKLIN,New England,Congressional District 2,Maine Appalachian Trail Club,STATE FEE - STATE OF MAINE - BIGELOW PRESERVE,45.14425171,-70.33020869,933.605,2015-2017 Trail Inventory using Trimble GPS Equipment
68,NERO,DOC,Smarts Mtn Fire Warden's Cabin Shelter,Official A.T. Shelter,SH277,0,0,0,New Hampshire,GRAFTON,New England,Congressional District 2,Dartmouth Outing Club,FEDERAL FEE - USFS WHITE MTN NF,43.82532419,-72.03739791,955.61,2015-2017 Trail Inventory using Trimble GPS Equipment
69,NERO,AMC-CT,Limestone Spring Shelter,Official A.T. Shelter,SH265,0,0,0,Connecticut,LITCHFIELD,New England,Congressional District 5,AMC - Connecticut Chapter,FEDERAL FEE - NPS APPA,41.97539395,-73.39238088,285.008,2015-2017 Trail Inventory using Trimble GPS Equipment
70,NERO,GMC,Governor Clement Shelter,Official A.T. Shelter,SH133,0,0,0,Vermont,RUTLAND,New England,Congressional District (at Large),Green Mountain Club,FEDERAL FEE - USFS GREEN MTN NF,43.56465485,-72.84831528,556.843,2015-2017 Trail Inventory using Trimble GPS Equipment
71,NERO,AMC-BERK,Kay Wood Shelter,Official A.T. Shelter,SH266,1,0,0,Massachusetts,BERKSHIRE,New England,Congressional District 1,AMC - Berkshire Chapter,STATE FEE - STATE OF MASSACHUSETTS,42.45208707,-73.16147321,521.824,2015-2017 Trail Inventory using Trimble GPS Equipment
72,NERO,DOC,Trapper John Shelter,Official A.T. Shelter,SH276,0,0,0,New Hampshire,GRAFTON,New England,Congressional District 2,Dartmouth Outing Club,FEDERAL FEE - USFS WHITE MTN NF,43.78312488,-72.11149146,434.085,2015-2017 Trail Inventory using Trimble GPS Equipment
73,NERO,MATC,Horns Pond Lean-to Shelter 1,Official A.T. Shelter,SH174,0,0,0,Maine,FRANKLIN,New England,Congressional District 2,Maine Appalachian Trail Club,STATE FEE - STATE OF MAINE - BIGELOW PRESERVE,45.14375385,-70.32962716,936.608,2015-2017 Trail Inventory using Trimble GPS Equipment
74,NERO,GMC,Greenwall Shelter,Official A.T. Shelter,SH177,0,0,0,Vermont,RUTLAND,New England,Congressional District (at Large),Green Mountain Club,FEDERAL FEE - USFS GREEN MTN NF,43.44058843,-72.92948941,590.25,2015-2017 Trail Inventory using Trimble GPS Equipment
75,NERO,AMC,Rattle River Shelter,Official A.T. Shelter,SH287,0,0,0,New Hampshire,COOS,New England,Congressional District 2,Appalachian Mountain Club,FEDERAL FEE - USFS WHITE MTN NF,44.38000573,-71.10754299,364.743,2015-2017 Trail Inventory using Trimble GPS Equipment
76,NERO,AMC,Carlo Col Shelter,Official A.T. Shelter,SH281,0,0,0,Maine,OXFORD,New England,Congressional District 2,Appalachian Mountain Club,STATE FEE - STATE OF MAINE,44.48867551,-71.01617503,877.057,2015-2017 Trail Inventory using Trimble GPS Equipment
77,NERO,MATC,Leeman Brook Lean-to Shelter,Official A.T. Shelter,SH207,0,0,0,Maine,PISCATAQUIS,New England,Congressional District 2,Maine Appalachian Trail Club,FEDERAL FEE - NPS APPA,45.35152802,-69.49870962,306.99,2015-2017 Trail Inventory using Trimble GPS Equipment
78,NERO,MATC,East Branch (Pleasant River) Lean-to Shelter,Official A.T. Shelter,SH26,0,0,0,Maine,PISCATAQUIS,New England,Congressional District 2,Maine Appalachian Trail Club,FEDERAL FEE - NPS APPA,45.5967723,-69.19818483,358.065,2015-2017 Trail Inventory using Trimble GPS Equipment
79,NERO,GMC,Seth Warner Shelter,Official A.T. Shelter,SH271,0,0,0,Vermont,BENNINGTON,New England,Congressional District (at Large),Green Mountain Club,FEDERAL FEE - USFS GREEN MTN NF,42.77201005,-73.13690785,647.376,2015-2017 Trail Inventory using Trimble GPS Equipment
80,NERO,DOC,Beaver Brook Shelter,Official A.T. Shelter,SH293,0,0,0,New Hampshire,GRAFTON,New England,Congressional District 2,Dartmouth Outing Club,FEDERAL FEE - USFS WHITE MTN NF,44.03306238,-71.81129582,1104.027,2015-2017 Trail Inventory using Trimble GPS Equipment
81,NERO,GMC,Story Spring Shelter,Official A.T. Shelter,SH272,0,0,0,Vermont,BENNINGTON,New England,Congressional District (at Large),Green Mountain Club,FEDERAL FEE - USFS GREEN MTN NF,43.05044826,-73.01243371,826.678,2015-2017 Trail Inventory using Trimble GPS Equipment
82,NERO,MATC,Cooper Brook Falls Lean-to Shelter,Official A.T. Shelter,SH299,0,0,0,Maine,PISCATAQUIS,New England,Congressional District 2,Maine Appalachian Trail Club,FEDERAL FEE - NPS APPA,45.64046183,-69.08734552,260.692,2015-2017 Trail Inventory using Trimble GPS Equipment
83,NERO,AMC,Speck Pond Shelter,Official A.T. Shelter,SH283,2,0,0,Maine,OXFORD,New England,Congressional District 2,Appalachian Mountain Club,STATE FEE - STATE OF MAINE,44.56471231,-70.97361229,1019.28,2015-2017 Trail Inventory using Trimble GPS Equipment
84,NERO,AMC-BERK,Tom Leonard Shelter,Official A.T. Shelter,SH206,1,0,0,Massachusetts,BERKSHIRE,New England,Congressional District 1,AMC - Berkshire Chapter,STATE FEE - STATE OF MASSACHUSETTS - DEM - EAST MTN SF,42.16481851,-73.30578304,444.793,2015-2017 Trail Inventory using Trimble GPS Equipment
85,NERO,AMC,Kinsman Pond Shelter,Official A.T. Shelter,SH291,0,0,0,New Hampshire,GRAFTON,New England,Congressional District 2,Appalachian Mountain Club,FEDERAL FEE - USFS WHITE MTN NF,44.13689782,-71.73237967,1119.862,2015-2017 Trail Inventory using Trimble GPS Equipment
86,NERO,GMC,Peru Peak Shelter,Official A.T. Shelter,SH202,0,0,0,Vermont,BENNINGTON,New England,Congressional District (at Large),Green Mountain Club,FEDERAL FEE - USFS GREEN MTN NF,43.30126516,-72.95234503,762.379,2015-2017 Trail Inventory using Trimble GPS Equipment
87,NERO,AMC-CT,Pine Swamp Brook Shelter,Official A.T. Shelter,SH264,0,0,0,Connecticut,LITCHFIELD,New England,Congressional District 5,AMC - Connecticut Chapter,FEDERAL FEE - NPS APPA,41.88164871,-73.39162484,303.256,2015-2017 Trail Inventory using Trimble GPS Equipment
88,NERO,MATC,Bemis Mtn Lean-to Shelter,Official A.T. Shelter,SH263,0,0,0,Maine,FRANKLIN,New England,Congressional District 2,Maine Appalachian Trail Club,FEDERAL FEE - NPS APPA,44.81018217,-70.75586048,827.611,2015-2017 Trail Inventory using Trimble GPS Equipment
89,NERO,MATC,Wilson Valley Lean-to Shelter,Official A.T. Shelter,SH32,0,0,0,Maine,PISCATAQUIS,New England,Congressional District 2,Maine Appalachian Trail Club,FEDERAL FEE - NPS APPA,45.39882455,-69.45914372,274.349,2015-2017 Trail Inventory using Trimble GPS Equipment
90,NERO,AMC-BERK,Mark Noepel Shelter,Official A.T. Shelter,SH180,1,0,0,Massachusetts,BERKSHIRE,New England,Congressional District 1,AMC - Berkshire Chapter,STATE FEE - STATE OF MASSACHUSETTS - DEM - MT GREYLOCK STATE RESERVATION,42.60864668,-73.18410187,794.54,2015-2017 Trail Inventory using Trimble GPS Equipment
91,NERO,AMC-BERK,Upper Goose Pond Cabin Shelter,Official A.T. Shelter,SH268,0,0,0,Massachusetts,BERKSHIRE,New England,Congressional District 1,AMC - Berkshire Chapter,FEDERAL FEE - NPS APPA,42.28872728,-73.1813543,436.994,2015-2017 Trail Inventory using Trimble GPS Equipment
92,NERO,GMC,Big Branch Shelter,Official A.T. Shelter,SH169,0,0,0,Vermont,RUTLAND,New England,Congressional District (at Large),Green Mountain Club,FEDERAL FEE - USFS GREEN MTN NF,43.36424117,-72.94639762,448.582,2015-2017 Trail Inventory using Trimble GPS Equipment
93,VARO,OCVT,Helveys Mill Shelter,Official A.T. Shelter,SH60,0,0,0,Virginia,BLAND,Virginia,Congressional District 9,Outdoor Club of Virginia Tech,FEDERAL FEE - USFS GEORGE WASHINGTON JEFFERSON NF,37.13078588,-81.10298051,908.462,2015-2017 Trail Inventory using Trimble GPS Equipment
94,VARO,MRATC,Thomas Knob Shelter,Official A.T. Shelter,SH63,0,0,0,Virginia,GRAYSON,Virginia,Congressional District 9,Mount Rogers Appalachian Trail Club,FEDERAL FEE - USFS GEORGE WASHINGTON JEFFERSON NF,36.65663231,-81.53521567,1620.351,2015-2017 Trail Inventory using Trimble GPS Equipment
95,VARO,RATC,Doc's Knob Shelter,Official A.T. Shelter,SH236,0,0,0,Virginia,GILES,Virginia,Congressional District 9,Roanoke Appalachian Trail Club,FEDERAL FEE - USFS GEORGE WASHINGTON JEFFERSON NF,37.27038174,-80.83612148,1064.332,2015-2017 Trail Inventory using Trimble GPS Equipment
96,VARO,RATC,Sarver Hollow Shelter,Official A.T. Shelter,SH107,0,0,0,Virginia,MONTGOMERY,Virginia,Congressional District 9,Roanoke Appalachian Trail Club,FEDERAL FEE - USFS GEORGE WASHINGTON JEFFERSON NF,37.35474123,-80.33733543,909.277,2015-2017 Trail Inventory using Trimble GPS Equipment
97,VARO,RATC,Johns Spring Shelter,Official A.T. Shelter,SH220,0,0,0,Virginia,ROANOKE,Virginia,Congressional District 9,Roanoke Appalachian Trail Club,FEDERAL FEE - NPS APPA,37.38539354,-80.07398639,561.369,2015-2017 Trail Inventory using Trimble GPS Equipment
98,VARO,NBATC,Johns Hollow Shelter,Official A.T. Shelter,SH219,0,0,0,Virginia,AMHERST,Virginia,Congressional District 6,Natural Bridge Appalachian Trail Club,FEDERAL FEE - USFS GEORGE WASHINGTON JEFFERSON NF,37.61292201,-79.39180952,272.907,2015-2017 Trail Inventory using Trimble GPS Equipment
99,VARO,NBATC,Brown Mtn Creek Shelter,Official A.T. Shelter,SH216,0,0,0,Virginia,AMHERST,Virginia,Congressional District 6,Natural Bridge Appalachian Trail Club,FEDERAL FEE - USFS GEORGE WASHINGTON JEFFERSON NF,37.70936956,-79.26824369,405.935,2015-2017 Trail Inventory using Trimble GPS Equipment
100,VARO,NBATC,Cove Mtn (VA) Shelter,Official A.T. Shelter,SH56,0,0,0,Virginia,BOTETOURT,Virginia,Congressional District 6,Natural Bridge Appalachian Trail Club,FEDERAL FEE - USFS GEORGE WASHINGTON JEFFERSON NF,37.51170675,-79.65074179,561.198,2015-2017 Trail Inventory using Trimble GPS Equipment
101,VARO,MRATC,Old Orchard Shelter,Official A.T. Shelter,SH225,0,0,0,Virginia,GRAYSON,Virginia,Congressional District 9,Mount Rogers Appalachian Trail Club,FEDERAL FEE - USFS GEORGE WASHINGTON JEFFERSON NF,36.68326742,-81.51102349,1214.518,2015-2017 Trail Inventory using Trimble GPS Equipment
102,MARO,PATC,Crampton Gap Shelter,Official A.T. Shelter,SH70,0,0,1,Maryland,FREDERICK,Mid-Atlantic,Congressional District 8,Potomac Appalachian Trail Club,STATE FEE - STATE OF MARYLAND,39.41257175,-77.63729702,274.228,2015-2017 Trail Inventory using Trimble GPS Equipment
103,VARO,RATC,Fullhardt Knob Shelter,Official A.T. Shelter,SH54,0,0,0,Virginia,BOTETOURT,Virginia,Congressional District 6,Roanoke Appalachian Trail Club,FEDERAL FEE - USFS GEORGE WASHINGTON JEFFERSON NF,37.39853822,-79.85368596,711.276,2015-2017 Trail Inventory using Trimble GPS Equipment
104,VARO,MRATC,Lost Mtn Shelter,Official A.T. Shelter,SH232,0,0,0,Virginia,WASHINGTON,Virginia,Congressional District 9,Mount Rogers Appalachian Trail Club,FEDERAL FEE - USFS GEORGE WASHINGTON JEFFERSON NF,36.64421323,-81.655932,999.312,2015-2017 Trail Inventory using Trimble GPS Equipment
105,VARO,RATC,Laurel Creek Shelter,Official A.T. Shelter,SH95,0,0,0,Virginia,CRAIG,Virginia,Congressional District 9,Roanoke Appalachian Trail Club,FEDERAL FEE - USFS GEORGE WASHINGTON JEFFERSON NF,37.35896865,-80.42095922,776.352,2015-2017 Trail Inventory using Trimble GPS Equipment
106,VARO,PATH,Chatfield Memorial Shelter,Official A.T. Shelter,SH233,0,0,0,Virginia,SMYTH,Virginia,Congressional District 9,Piedmont Appalachian Trail Hikers,FEDERAL FEE - USFS GEORGE WASHINGTON JEFFERSON NF,36.84999739,-81.36318355,955.316,2015-2017 Trail Inventory using Trimble GPS Equipment
107,VARO,OCVT,Rice Field Shelter,Official A.T. Shelter,SH213,0,0,0,Virginia,GILES,Virginia,Congressional District 9,Outdoor Club of Virginia Tech,FEDERAL FEE - USFS GEORGE WASHINGTON JEFFERSON NF,37.37483558,-80.75837333,994.17,2015-2017 Trail Inventory using Trimble GPS Equipment
108,VARO,NBATC,Thunder Hill Shelter,Official A.T. Shelter,SH57,0,0,0,Virginia,BEDFORD,Virginia,Congressional District 6,Natural Bridge Appalachian Trail Club,FEDERAL FEE - USFS GEORGE WASHINGTON JEFFERSON NF,37.52747041,-79.50393396,1163.958,2015-2017 Trail Inventory using Trimble GPS Equipment
109,VARO,RATC,Bailey Gap Shelter,Official A.T. Shelter,SH188,0,0,0,Virginia,GILES,Virginia,Congressional District 9,Roanoke Appalachian Trail Club,FEDERAL FEE - USFS GEORGE WASHINGTON JEFFERSON NF,37.40102826,-80.57698082,1049.461,2015-2017 Trail Inventory using Trimble GPS Equipment
110,VARO,NBATC,The Priest Shelter,Official A.T. Shelter,SH62,0,0,0,Virginia,NELSON,Virginia,Congressional District 5,Natural Bridge Appalachian Trail Club,FEDERAL FEE - USFS GEORGE WASHINGTON JEFFERSON NF,37.817785,-79.0703681,1148.715,2015-2017 Trail Inventory using Trimble GPS Equipment
111,VARO,PATH,Jenkins Shelter,Official A.T. Shelter,SH228,0,0,0,Virginia,BLAND,Virginia,Congressional District 9,Piedmont Appalachian Trail Hikers,FEDERAL FEE - USFS GEORGE WASHINGTON JEFFERSON NF,37.09346016,-81.24766733,718.215,2015-2017 Trail Inventory using Trimble GPS Equipment
112,VARO,RATC,Campbell Shelter,Official A.T. Shelter,SH55,0,0,0,Virginia,ROANOKE,Virginia,Congressional District 9,Roanoke Appalachian Trail Club,FEDERAL FEE - NPS APPA,37.39084393,-80.02916733,772.354,2015-2017 Trail Inventory using Trimble GPS Equipment
113,VARO,RATC,Niday Shelter,Official A.T. Shelter,SH235,0,0,0,Virginia,CRAIG,Virginia,Congressional District 9,Roanoke Appalachian Trail Club,FEDERAL FEE - USFS GEORGE WASHINGTON JEFFERSON NF,37.38769941,-80.2640853,566.386,2015-2017 Trail Inventory using Trimble GPS Equipment
114,VARO,MRATC,Hurricane Mtn Shelter,Official A.T. Shelter,SH316,0,0,0,Virginia,SMYTH,Virginia,Congressional District 9,Mount Rogers Appalachian Trail Club,FEDERAL FEE - USFS GEORGE WASHINGTON JEFFERSON NF,36.71544997,-81.50956843,1151.715,2015-2017 Trail Inventory using Trimble GPS Equipment
115,VARO,TATC,Maupin Field Shelter,Official A.T. Shelter,SH223,0,0,1,Virginia,NELSON,Virginia,Congressional District 5,Tidewater Appalachian Trail Club,FEDERAL FEE - USFS GEORGE WASHINGTON JEFFERSON NF,37.88491278,-78.99366981,796.22,2015-2017 Trail Inventory using Trimble GPS Equipment
116,VARO,RATC,Wilson Creek Shelter,Official A.T. Shelter,SH222,0,0,0,Virginia,BOTETOURT,Virginia,Congressional District 6,Roanoke Appalachian Trail Club,FEDERAL FEE - USFS GEORGE WASHINGTON JEFFERSON NF,37.41938914,-79.78558813,588.141,2015-2017 Trail Inventory using Trimble GPS Equipment
117,VARO,RATC,Wapiti Shelter,Official A.T. Shelter,SH238,0,0,0,Virginia,GILES,Virginia,Congressional District 9,Roanoke Appalachian Trail Club,FEDERAL FEE - USFS GEORGE WASHINGTON JEFFERSON NF,37.22387783,-80.82404689,780.5,2015-2017 Trail Inventory using Trimble GPS Equipment
118,VARO,RATC,Jenny Knob Shelter,Official A.T. Shelter,SH106,0,0,0,Virginia,BLAND,Virginia,Congressional District 9,Roanoke Appalachian Trail Club,FEDERAL FEE - USFS GEORGE WASHINGTON JEFFERSON NF,37.15503862,-80.98012768,766.501,2015-2017 Trail Inventory using Trimble GPS Equipment
119,VARO,TATC,Harpers Creek Shelter,Official A.T. Shelter,SH234,0,0,0,Virginia,NELSON,Virginia,Congressional District 5,Tidewater Appalachian Trail Club,FEDERAL FEE - USFS GEORGE WASHINGTON JEFFERSON NF,37.85621245,-79.00052879,520.296,2015-2017 Trail Inventory using Trimble GPS Equipment
120,VARO,NBATC,Matts Creek Shelter,Official A.T. Shelter,SH214,0,0,0,Virginia,BEDFORD,Virginia,Congressional District 6,Natural Bridge Appalachian Trail Club,FEDERAL FEE - USFS GEORGE WASHINGTON JEFFERSON NF,37.59952176,-79.41317576,218.453,2015-2017 Trail Inventory using Trimble GPS Equipment
121,VARO,RATC,Catawba Mtn Shelter,Official A.T. Shelter,SH221,0,0,0,Virginia,ROANOKE,Virginia,Congressional District 9,Roanoke Appalachian Trail Club,FEDERAL FEE - NPS APPA,37.38819903,-80.05716102,629.325,2015-2017 Trail Inventory using Trimble GPS Equipment
122,VARO,RATC,Pine Swamp Branch Shelter,Official A.T. Shelter,SH237,0,0,0,Virginia,GILES,Virginia,Congressional District 9,Roanoke Appalachian Trail Club,FEDERAL FEE - USFS GEORGE WASHINGTON JEFFERSON NF,37.42207225,-80.60845443,753.002,2015-2017 Trail Inventory using Trimble GPS Equipment
123,MARO,PATC,Pine Knob Shelter,Official A.T. Shelter,SH68,0,0,1,Maryland,WASHINGTON,Mid-Atlantic,Congressional District 6,Potomac Appalachian Trail Club,STATE FEE - STATE OF MARYLAND,39.54242598,-77.60217709,395.452,2015-2017 Trail Inventory using Trimble GPS Equipment
124,VARO,NBATC,Bryant Ridge Shelter,Official A.T. Shelter,SH229,0,0,0,Virginia,BOTETOURT,Virginia,Congressional District 6,Natural Bridge Appalachian Trail Club,FEDERAL FEE - USFS GEORGE WASHINGTON JEFFERSON NF,37.53016267,-79.58556134,374.777,2015-2017 Trail Inventory using Trimble GPS Equipment
125,VARO,RATC,Lamberts Meadow Shelter,Official A.T. Shelter,SH239,0,0,0,Virginia,BOTETOURT,Virginia,Congressional District 6,Roanoke Appalachian Trail Club,FEDERAL EASEMENT - NPS APPA - OWNER = CITY OF ROANOKE,37.43462959,-79.98755934,611.665,2015-2017 Trail Inventory using Trimble GPS Equipment
126,VARO,PATH,Knot Maul Branch Shelter,Official A.T. Shelter,SH230,0,0,0,Virginia,BLAND,Virginia,Congressional District 9,Piedmont Appalachian Trail Hikers,FEDERAL FEE - USFS GEORGE WASHINGTON JEFFERSON NF,37.00077015,-81.40448514,822.593,2015-2017 Trail Inventory using Trimble GPS Equipment
127,VARO,PATH,Partnership Shelter,Official A.T. Shelter,SH58,0,0,0,Virginia,SMYTH,Virginia,Congressional District 9,Piedmont Appalachian Trail Hikers,FEDERAL FEE - USFS GEORGE WASHINGTON JEFFERSON NF,36.80952631,-81.42241593,959.889,2015-2017 Trail Inventory using Trimble GPS Equipment
128,VARO,MRATC,Trimpi Shelter,Official A.T. Shelter,SH224,0,0,0,Virginia,SMYTH,Virginia,Congressional District 9,Mount Rogers Appalachian Trail Club,FEDERAL FEE - USFS GEORGE WASHINGTON JEFFERSON NF,36.74923382,-81.48038314,864.777,2015-2017 Trail Inventory using Trimble GPS Equipment
129,VARO,NBATC,Seeley-Woodworth Shelter,Official A.T. Shelter,SH215,0,0,0,Virginia,NELSON,Virginia,Congressional District 5,Natural Bridge Appalachian Trail Club,FEDERAL FEE - USFS GEORGE WASHINGTON JEFFERSON NF,37.81899762,-79.15490663,1118.721,2015-2017 Trail Inventory using Trimble GPS Equipment
130,VARO,MRATC,Saunders Shelter,Official A.T. Shelter,SH65,0,0,0,Virginia,WASHINGTON,Virginia,Congressional District 9,Mount Rogers Appalachian Trail Club,FEDERAL FEE - USFS GEORGE WASHINGTON JEFFERSON NF,36.63797214,-81.7133242,595.403,2015-2017 Trail Inventory using Trimble GPS Equipment
131,VARO,NBATC,Cow Camp Gap Shelter,Official A.T. Shelter,SH61,0,0,0,Virginia,AMHERST,Virginia,Congressional District 6,Natural Bridge Appalachian Trail Club,FEDERAL FEE - USFS GEORGE WASHINGTON JEFFERSON NF,37.74499729,-79.21268403,940.141,2015-2017 Trail Inventory using Trimble GPS Equipment
132,VARO,MRATC,Wise Shelter,Official A.T. Shelter,SH226,0,0,0,Virginia,GRAYSON,Virginia,Congressional District 9,Mount Rogers Appalachian Trail Club,STATE FEE - STATE OF VIRGINIA - GRAYSON HIGHLANDS SP,36.65402388,-81.49841368,1313.778,2015-2017 Trail Inventory using Trimble GPS Equipment
133,VARO,NBATC,Cornelius Creek Shelter,Official A.T. Shelter,SH217,0,0,0,Virginia,BOTETOURT,Virginia,Congressional District 6,Natural Bridge Appalachian Trail Club,FEDERAL FEE - USFS GEORGE WASHINGTON JEFFERSON NF,37.49397442,-79.54707986,934.98,2015-2017 Trail Inventory using Trimble GPS Equipment
134,VARO,NBATC,Bobblets Gap Shelter,Official A.T. Shelter,SH189,0,0,0,Virginia,BOTETOURT,Virginia,Congressional District 6,Natural Bridge Appalachian Trail Club,FEDERAL FEE - USFS GEORGE WASHINGTON JEFFERSON NF,37.46717625,-79.70117278,566.415,2015-2017 Trail Inventory using Trimble GPS Equipment
135,VARO,RATC,Pickle Branch Shelter,Official A.T. Shelter,SH190,0,0,0,Virginia,CRAIG,Virginia,Congressional District 9,Roanoke Appalachian Trail Club,FEDERAL FEE - USFS GEORGE WASHINGTON JEFFERSON NF,37.38019456,-80.1845972,543.931,2015-2017 Trail Inventory using Trimble GPS Equipment
136,VARO,PATH,Chestnut Knob Shelter,Official A.T. Shelter,SH231,0,0,0,Virginia,TAZEWELL,Virginia,Congressional District 9,Piedmont Appalachian Trail Hikers,FEDERAL FEE - USFS GEORGE WASHINGTON JEFFERSON NF,37.05777274,-81.39937352,1310.336,2015-2017 Trail Inventory using Trimble GPS Equipment
137,VARO,ODATC,Paul C. Wolfe Shelter,Official A.T. Shelter,SH227,0,0,1,Virginia,NELSON,Virginia,Congressional District 5,Old Dominion Appalachian Trail Club,FEDERAL FEE - NPS BLRI,37.9852922,-78.88368595,490.705,2015-2017 Trail Inventory using Trimble GPS Equipment
138,VARO,NBATC,Punchbowl Shelter,Official A.T. Shelter,SH64,0,0,0,Virginia,AMHERST,Virginia,Congressional District 6,Natural Bridge Appalachian Trail Club,FEDERAL FEE - USFS GEORGE WASHINGTON JEFFERSON NF,37.67779382,-79.33850199,731.696,2015-2017 Trail Inventory using Trimble GPS Equipment
139,VARO,RATC,War Spur Shelter,Official A.T. Shelter,SH218,0,0,0,Virginia,GILES,Virginia,Congressional District 9,Roanoke Appalachian Trail Club,FEDERAL FEE - USFS GEORGE WASHINGTON JEFFERSON NF,37.39760215,-80.47381495,685.469,2015-2017 Trail Inventory using Trimble GPS Equipment
140,SORO,TEHCC,No Business Knob Shelter,Official A.T. Shelter,SH48,0,0,0,Tennessee,UNICOI,Southern,Congressional District 1,Tennessee Eastman Hiking and Canoeing Club,FEDERAL FEE - USFS CHEROKEE NF,36.06661925,-82.43358995,965.046,2015-2017 Trail Inventory using Trimble GPS Equipment
141,SORO,SMHC,Sassafras Gap Shelter,Official A.T. Shelter,SH88,0,0,0,North Carolina,SWAIN,Southern,Congressional District 11,Smoky Mountain Hiking Club,FEDERAL FEE - USFS NANTAHALA NF,35.33061882,-83.66672229,1272.975,2015-2017 Trail Inventory using Trimble GPS Equipment
142,SORO,SMHC,Mollies Ridge Shelter,Official A.T. Shelter,SH248,0,2,0,Tennessee,BLOUNT,Southern,Congressional District 2,Smoky Mountain Hiking Club,FEDERAL FEE - NPS GRSM,35.54588289,-83.7935571,1374.293,2015-2017 Trail Inventory using Trimble GPS Equipment
143,SORO,SMHC,Mt. Collins Shelter,Official A.T. Shelter,SH41,0,2,0,Tennessee,SEVIER,Southern,Congressional District 1,Smoky Mountain Hiking Club,FEDERAL FEE - NPS GRSM,35.5940445,-83.47096533,1753.556,2015-2017 Trail Inventory using Trimble GPS Equipment
144,SORO,NHC,Wesser Bald Shelter,Official A.T. Shelter,SH256,0,1,0,North Carolina,MACON,Southern,Congressional District 11,Nantahala Hiking Club,FEDERAL FEE - USFS NANTAHALA NF,35.28253788,-83.58221922,1374.077,2015-2017 Trail Inventory using Trimble GPS Equipment
145,SORO,CMC,Hogback Ridge Shelter,Official A.T. Shelter,SH36,0,1,0,North Carolina,MADISON,Southern,Congressional District 11,Carolina Mountain Club,FEDERAL FEE - USFS PISGAH NF,35.96406062,-82.58713883,1286.356,2015-2017 Trail Inventory using Trimble GPS Equipment
146,SORO,SMHC,Pecks Corner Shelter,Official A.T. Shelter,SH50,0,2,0,North Carolina,SWAIN,Southern,Congressional District 11,Smoky Mountain Hiking Club,FEDERAL FEE - NPS GRSM,35.65080936,-83.30846084,1586.033,2015-2017 Trail Inventory using Trimble GPS Equipment
147,SORO,NHC,Cold Spring Shelter,Official A.T. Shelter,SH43,0,0,0,North Carolina,MACON,Southern,Congressional District 11,Nantahala Hiking Club,FEDERAL FEE - USFS NANTAHALA NF,35.23120259,-83.55995851,1481.065,2015-2017 Trail Inventory using Trimble GPS Equipment
148,SORO,GATC,Tray Mtn Shelter,Official A.T. Shelter,SH260,0,1,0,Georgia,HABERSHAM,Southern,Congressional District 9,Georgia Appalachian Trail Club,FEDERAL FEE - USFS CHATTAHOOCHEE NF,34.80413356,-83.6767405,1255.287,2015-2017 Trail Inventory using Trimble GPS Equipment
149,SORO,GATC,Whitley Gap Shelter,Official A.T. Shelter,Sh258,0,1,0,Georgia,WHITE,Southern,Congressional District 9,Georgia Appalachian Trail Club,FEDERAL FEE - USFS CHATTAHOOCHEE NF,34.71261549,-83.83436681,1000.628,2015-2017 Trail Inventory using Trimble GPS Equipment
150,SORO,NHC,Rock Gap Shelter,Official A.T. Shelter,SH44,0,0,0,North Carolina,MACON,Southern,Congressional District 11,Nantahala Hiking Club,FEDERAL FEE - USFS NANTAHALA NF,35.09154811,-83.52303145,1130.786,2015-2017 Trail Inventory using Trimble GPS Equipment
151,SORO,GATC,Blood Mtn Shelter,Official A.T. Shelter,SH186,0,0,0,Georgia,UNION,Southern,Congressional District 9,Georgia Appalachian Trail Club,FEDERAL FEE - USFS CHATTAHOOCHEE NF,34.74003956,-83.93741442,1323.294,2015-2017 Trail Inventory using Trimble GPS Equipment
152,SORO,TEHCC,McQueen's Knob (Emergency) Shelter,Official A.T. Shelter,SH253,0,0,0,Tennessee,JOHNSON,Southern,Congressional District 1,Tennessee Eastman Hiking and Canoeing Club,FEDERAL FEE - USFS CHEROKEE NF,36.572238,-81.92020234,1139.38,2015-2017 Trail Inventory using Trimble GPS Equipment
153,SORO,GATC,Hawk Mtn Shelter,Official A.T. Shelter,SH39,0,1,0,Georgia,UNION,Southern,Congressional District 9,Georgia Appalachian Trail Club,FEDERAL FEE - USFS CHATTAHOOCHEE NF,34.66616235,-84.13635734,926.801,2015-2017 Trail Inventory using Trimble GPS Equipment
154,SORO,TEHCC,Laurel Fork Shelter,Official A.T. Shelter,SH183,0,0,0,Tennessee,CARTER,Southern,Congressional District 1,Tennessee Eastman Hiking and Canoeing Club,FEDERAL FEE - USFS CHEROKEE NF,36.27873849,-82.1361984,655.261,2015-2017 Trail Inventory using Trimble GPS Equipment
155,SORO,GATC,Amicalola Falls (Max Epperson) Shelter,Official A.T. Shelter,NA,0,0,0,Georgia,DAWSON,Southern,Congressional District 9,Georgia Appalachian Trail Club,STATE FEE - STATE OF GEORGIA - AMICALOLA FALLS SP,34.5581353,-84.24836004,533.114,2015-2017 Trail Inventory using Trimble GPS Equipment
156,SORO,TEHCC,Iron Mtn Shelter,Official A.T. Shelter,SH109,0,0,0,Tennessee,JOHNSON,Southern,Congressional District 1,Tennessee Eastman Hiking and Canoeing Club,FEDERAL FEE - USFS CHEROKEE NF,36.43542,-81.99097863,1219.378,2015-2017 Trail Inventory using Trimble GPS Equipment
157,SORO,CMC,Flint Mtn Shelter,Official A.T. Shelter,SH110,0,4,0,North Carolina,MADISON,Southern,Congressional District 11,Carolina Mountain Club,FEDERAL FEE - USFS PISGAH NF,36.0348798,-82.59666511,1059.003,2015-2017 Trail Inventory using Trimble GPS Equipment
158,SORO,NHC,Standing Indian Shelter,Official A.T. Shelter,SH261,0,0,0,North Carolina,MACON,Southern,Congressional District 11,Nantahala Hiking Club,FEDERAL FEE - USFS NANTAHALA NF,35.04197415,-83.54805141,1429.325,2015-2017 Trail Inventory using Trimble GPS Equipment
159,SORO,GATC,Deep Gap Shelter,Official A.T. Shelter,SH118,0,1,1,Georgia,RABUN,Southern,Congressional District 9,Georgia Appalachian Trail Club,FEDERAL FEE - USFS CHATTAHOOCHEE NF,34.88250621,-83.64595943,1035.74,2015-2017 Trail Inventory using Trimble GPS Equipment
160,SORO,CMC,Groundhog Creek Shelter,Official A.T. Shelter,SH45,0,4,0,North Carolina,HAYWOOD,Southern,Congressional District 11,Carolina Mountain Club,FEDERAL FEE - USFS PISGAH NF,35.78178317,-83.02620967,828.447,2015-2017 Trail Inventory using Trimble GPS Equipment
161,SORO,NHC,Siler Bald Shelter,Official A.T. Shelter,SH185,0,1,0,North Carolina,MACON,Southern,Congressional District 11,Nantahala Hiking Club,FEDERAL FEE - USFS NANTAHALA NF,35.14427031,-83.57246097,1375.007,2015-2017 Trail Inventory using Trimble GPS Equipment
162,SORO,TEHCC,Abingdon Gap Shelter,Official A.T. Shelter,SH252,0,0,0,Tennessee,JOHNSON,Southern,Congressional District 1,Tennessee Eastman Hiking and Canoeing Club,FEDERAL FEE - USFS CHEROKEE NF,36.58090358,-81.90179854,1088.377,2015-2017 Trail Inventory using Trimble GPS Equipment
163,SORO,SMHC,Cosby Knob Shelter,Official A.T. Shelter,SH52,0,2,0,North Carolina,HAYWOOD,Southern,Congressional District 11,Smoky Mountain Hiking Club,FEDERAL FEE - NPS GRSM,35.72830133,-83.18200045,1420.731,2015-2017 Trail Inventory using Trimble GPS Equipment
164,SORO,NHC,Wayah Shelter,Official A.T. Shelter,SH242,0,0,0,North Carolina,MACON,Southern,Congressional District 11,Nantahala Hiking Club,FEDERAL FEE - USFS NANTAHALA NF,35.18792885,-83.56206797,1330.001,2015-2017 Trail Inventory using Trimble GPS Equipment
165,SORO,GATC,Woods Hole Shelter,Official A.T. Shelter,SH187,0,1,0,Georgia,UNION,Southern,Congressional District 9,Georgia Appalachian Trail Club,FEDERAL FEE - USFS CHATTAHOOCHEE NF,34.73729056,-83.95493968,1082.422,2015-2017 Trail Inventory using Trimble GPS Equipment
166,SORO,CMC,Bald Mtn Shelter,Official A.T. Shelter,SH184,0,1,0,Tennessee,UNICOI,Southern,Congressional District 1,Carolina Mountain Club,FEDERAL FEE - USFS CHEROKEE NF,36.00012457,-82.47813248,1515.271,2015-2017 Trail Inventory using Trimble GPS Equipment
167,SORO,SMHC,Spence Field Shelter,Official A.T. Shelter,SH94,0,4,0,North Carolina,SWAIN,Southern,Congressional District 11,Smoky Mountain Hiking Club,FEDERAL FEE - NPS GRSM,35.561844,-83.73263365,1467.053,2015-2017 Trail Inventory using Trimble GPS Equipment
168,SORO,TEHCC,Clyde Smith Shelter,Official A.T. Shelter,SH241,0,0,0,Tennessee,CARTER,Southern,Congressional District 1,Tennessee Eastman Hiking and Canoeing Club,FEDERAL FEE - USFS CHEROKEE NF,36.14853317,-82.16127759,1325.261,2015-2017 Trail Inventory using Trimble GPS Equipment
169,SORO,TEHCC,Stan Murray Shelter,Official A.T. Shelter,SH112,0,0,0,North Carolina,AVERY,Southern,Congressional District 5,Tennessee Eastman Hiking and Canoeing Club,FEDERAL FEE - USFS PISGAH NF,36.11241053,-82.06571308,1513.284,2015-2017 Trail Inventory using Trimble GPS Equipment
170,SORO,TEHCC,Vandeventer Shelter,Official A.T. Shelter,SH251,0,0,0,Tennessee,CARTER,Southern,Congressional District 1,Tennessee Eastman Hiking and Canoeing Club,FEDERAL FEE - USFS CHEROKEE NF,36.36706704,-82.05876523,1062.438,2015-2017 Trail Inventory using Trimble GPS Equipment
171,SORO,TEHCC,Curley Maple Gap Shelter,Official A.T. Shelter,SH262,0,0,0,Tennessee,UNICOI,Southern,Congressional District 1,Tennessee Eastman Hiking and Canoeing Club,FEDERAL FEE - USFS CHEROKEE NF,36.1042581,-82.39705479,927.78,2015-2017 Trail Inventory using Trimble GPS Equipment
172,SORO,GATC,Low Gap Shelter,Official A.T. Shelter,SH259,0,2,0,Georgia,WHITE,Southern,Congressional District 9,Georgia Appalachian Trail Club,FEDERAL FEE - USFS CHATTAHOOCHEE NF,34.77622027,-83.82455275,889.093,2015-2017 Trail Inventory using Trimble GPS Equipment
173,SORO,TEHCC,Roan High Knob Shelter,Official A.T. Shelter,SH111,0,0,0,Tennessee,CARTER,Southern,Congressional District 1,Tennessee Eastman Hiking and Canoeing Club,FEDERAL FEE - USFS CHEROKEE NF,36.10514648,-82.12221517,1880.347,2015-2017 Trail Inventory using Trimble GPS Equipment
174,SORO,GATC,Gooch Mtn Shelter,Official A.T. Shelter,SH115,0,1,0,Georgia,UNION,Southern,Congressional District 9,Georgia Appalachian Trail Club,FEDERAL FEE - USFS CHATTAHOOCHEE NF,34.65569448,-84.04995685,810.203,2015-2017 Trail Inventory using Trimble GPS Equipment
175,SORO,TEHCC,Overmountain Shelter,Official A.T. Shelter,SH255,0,0,0,North Carolina,AVERY,Southern,Congressional District 5,Tennessee Eastman Hiking and Canoeing Club,FEDERAL FEE - USFS PISGAH NF,36.12355902,-82.05431326,1646.671,2015-2017 Trail Inventory using Trimble GPS Equipment
176,SORO,SMHC,Silers Bald Shelter,Official A.T. Shelter,SH92,0,6,0,North Carolina,SWAIN,Southern,Congressional District 11,Smoky Mountain Hiking Club,FEDERAL FEE - NPS GRSM,35.56423248,-83.5682732,1639.332,2015-2017 Trail Inventory using Trimble GPS Equipment
177,SORO,SMHC,Brown Fork Gap Shelter,Official A.T. Shelter,SH46,0,0,0,North Carolina,GRAHAM,Southern,Congressional District 11,Smoky Mountain Hiking Club,FEDERAL FEE - USFS NANTAHALA NF,35.37426375,-83.73383413,1123.773,2015-2017 Trail Inventory using Trimble GPS Equipment
178,SORO,CMC,Jerry Cabin Shelter,Official A.T. Shelter,SH240,0,4,0,North Carolina,MADISON,Southern,Congressional District 11,Carolina Mountain Club,FEDERAL FEE - USFS PISGAH NF,36.05655321,-82.65714026,1066.742,2015-2017 Trail Inventory using Trimble GPS Equipment
179,SORO,TEHCC,Mountaineer Falls Shelter,Official A.T. Shelter,SH191,0,0,0,Tennessee,CARTER,Southern,Congressional District 1,Tennessee Eastman Hiking and Canoeing Club,FEDERAL FEE - USFS CHEROKEE NF,36.22014973,-81.98568161,939.114,2015-2017 Trail Inventory using Trimble GPS Equipment
180,SORO,GATC,Stover Creek Shelter,Official A.T. Shelter,SH90,0,1,0,Georgia,FANNIN,Southern,Congressional District 9,Georgia Appalachian Trail Club,FEDERAL FEE - USFS CHATTAHOOCHEE NF,34.65030301,-84.197201,943.406,2015-2017 Trail Inventory using Trimble GPS Equipment
181,SORO,NHC,Long Branch Shelter,Official A.T. Shelter,SH319,0,0,0,North Carolina,MACON,Southern,Congressional District 11,Nantahala Hiking Club,FEDERAL FEE - USFS NANTAHALA NF,35.070026,-83.49812993,1326.801,2015-2017 Trail Inventory using Trimble GPS Equipment
182,SORO,GATC,Black Gap Shelter,Official A.T. Shelter,SH160,0,1,0,Georgia,GILMER,Southern,Congressional District 9,Georgia Appalachian Trail Club,FEDERAL FEE - USFS CHATTAHOOCHEE NF,34.61748782,-84.19848465,947.006,2015-2017 Trail Inventory using Trimble GPS Equipment
183,SORO,CMC,Roaring Fork Shelter,Official A.T. Shelter,SH192,0,1,0,North Carolina,MADISON,Southern,Congressional District 11,Carolina Mountain Club,FEDERAL FEE - USFS PISGAH NF,35.80492969,-82.94992514,1195.27,2015-2017 Trail Inventory using Trimble GPS Equipment
184,SORO,TEHCC,Moreland Gap Shelter,Official A.T. Shelter,SH37,0,0,0,Tennessee,CARTER,Southern,Congressional District 1,Tennessee Eastman Hiking and Canoeing Club,FEDERAL FEE - USFS CHEROKEE NF,36.22011832,-82.08831437,1140.263,2015-2017 Trail Inventory using Trimble GPS Equipment
185,SORO,SMHC,Davenport Gap Shelter,Official A.T. Shelter,SH38,0,0,0,Tennessee,COCKE,Southern,Congressional District 1,Smoky Mountain Hiking Club,FEDERAL FEE - NPS GRSM,35.76926062,-83.12346523,755.315,2015-2017 Trail Inventory using Trimble GPS Equipment
186,SORO,SMHC,Tri-Corner Knob Shelter,Official A.T. Shelter,SH51,0,2,0,North Carolina,SWAIN,Southern,Congressional District 11,Smoky Mountain Hiking Club,FEDERAL FEE - NPS GRSM,35.69386416,-83.25655536,1768.528,2015-2017 Trail Inventory using Trimble GPS Equipment
187,SORO,SMHC,Double Spring Gap Shelter,Official A.T. Shelter,SH42,0,8,0,North Carolina,SWAIN,Southern,Congressional District 11,Smoky Mountain Hiking Club,FEDERAL FEE - NPS GRSM,35.5651973,-83.54255867,1649.651,2015-2017 Trail Inventory using Trimble GPS Equipment
188,SORO,TEHCC,Cherry Gap Shelter,Official A.T. Shelter,SH40,0,0,0,Tennessee,UNICOI,Southern,Congressional District 1,Tennessee Eastman Hiking and Canoeing Club,FEDERAL FEE - USFS CHEROKEE NF,36.12931748,-82.26405767,1181.188,2015-2017 Trail Inventory using Trimble GPS Equipment
189,SORO,SMHC,Russell Field Shelter,Official A.T. Shelter,SH247,0,7,0,North Carolina,SWAIN,Southern,Congressional District 11,Smoky Mountain Hiking Club,FEDERAL FEE - NPS GRSM,35.56181957,-83.76646057,1298.756,2015-2017 Trail Inventory using Trimble GPS Equipment
190,SORO,SMHC,Derrick Knob Shelter,Official A.T. Shelter,SH93,0,4,0,Tennessee,SEVIER,Southern,Congressional District 1,Smoky Mountain Hiking Club,FEDERAL FEE - NPS GRSM,35.56648425,-83.64184696,1460.112,2015-2017 Trail Inventory using Trimble GPS Equipment
191,SORO,NHC,Muskrat Creek Shelter,Official A.T. Shelter,SH53,0,0,0,North Carolina,CLAY,Southern,Congressional District 11,Nantahala Hiking Club,FEDERAL FEE - USFS NANTAHALA NF,35.02069433,-83.58134041,1363.609,2015-2017 Trail Inventory using Trimble GPS Equipment
192,SORO,CMC,Little Laurel Shelter,Official A.T. Shelter,SH49,0,1,0,North Carolina,MADISON,Southern,Congressional District 11,Carolina Mountain Club,FEDERAL FEE - USFS PISGAH NF,36.01512069,-82.73601381,1091.859,2015-2017 Trail Inventory using Trimble GPS Equipment
193,SORO,CMC,Deer Park Mtn Shelter,Official A.T. Shelter,SH249,0,4,0,North Carolina,MADISON,Southern,Congressional District 11,Carolina Mountain Club,FEDERAL FEE - USFS PISGAH NF,35.87595421,-82.86123531,691.449,2015-2017 Trail Inventory using Trimble GPS Equipment
194,SORO,SMHC,Icewater Spring Shelter,Official A.T. Shelter,SH91,0,2,0,North Carolina,SWAIN,Southern,Congressional District 11,Smoky Mountain Hiking Club,FEDERAL FEE - NPS GRSM,35.62978768,-83.38627004,1773.989,2015-2017 Trail Inventory using Trimble GPS Equipment
195,SORO,NHC,A. Rufus Morgan Shelter,Official A.T. Shelter,SH257,0,0,0,North Carolina,SWAIN,Southern,Congressional District 11,Nantahala Hiking Club,FEDERAL FEE - USFS NANTAHALA NF,35.32431551,-83.59012967,631.209,2015-2017 Trail Inventory using Trimble GPS Equipment
196,SORO,NHC,Carter Gap Shelter,Official A.T. Shelter,SH245,0,1,0,North Carolina,CLAY,Southern,Congressional District 11,Nantahala Hiking Club,FEDERAL FEE - USFS NANTAHALA NF,34.99900813,-83.49414949,1366.103,2015-2017 Trail Inventory using Trimble GPS Equipment
197,SORO,CMC,Spring Mtn Shelter,Official A.T. Shelter,SH250,0,4,0,Tennessee,GREENE,Southern,Congressional District 1,Carolina Mountain Club,FEDERAL FEE - USFS CHEROKEE NF,35.95181425,-82.79011932,1043.056,2015-2017 Trail Inventory using Trimble GPS Equipment
198,SORO,SMHC,Fontana Dam Shelter,Official A.T. Shelter,SH211,0,0,0,North Carolina,GRAHAM,Southern,Congressional District 11,Smoky Mountain Hiking Club,FEDERAL FEE - TVA,35.44850641,-83.7939314,512.883,2015-2017 Trail Inventory using Trimble GPS Equipment
199,SORO,TEHCC,Double Springs Shelter,Official A.T. Shelter,SH254,0,0,0,Tennessee,CARTER,Southern,Congressional District 1,Tennessee Eastman Hiking and Canoeing Club,FEDERAL FEE - USFS CHEROKEE NF,36.50912547,-81.98609253,1213.052,2015-2017 Trail Inventory using Trimble GPS Equipment
200,SORO,SMHC,Cable Gap Shelter,Official A.T. Shelter,SH210,0,0,0,North Carolina,GRAHAM,Southern,Congressional District 11,Smoky Mountain Hiking Club,FEDERAL FEE - USFS NANTAHALA NF,35.41525657,-83.77343738,868.983,2015-2017 Trail Inventory using Trimble GPS Equipment
201,SORO,CMC,Walnut Mtn Shelter,Official A.T. Shelter,SH47,0,1,0,Tennessee,COCKE,Southern,Congressional District 1,Carolina Mountain Club,FEDERAL FEE - USFS CHEROKEE NF,35.83651277,-82.9365003,1268.461,2015-2017 Trail Inventory using Trimble GPS Equipment
202,SORO,GATC,Plumorchard Gap Shelter,Official A.T. Shelter,SH212,0,4,0,Georgia,TOWNS,Southern,Congressional District 9,Georgia Appalachian Trail Club,FEDERAL FEE - USFS CHATTAHOOCHEE NF,34.94598064,-83.58828909,880.154,2015-2017 Trail Inventory using Trimble GPS Equipment
203,SORO,GATC,Blue Mtn Shelter,Official A.T. Shelter,SH243,0,1,0,Georgia,TOWNS,Southern,Congressional District 9,Georgia Appalachian Trail Club,FEDERAL FEE - USFS CHATTAHOOCHEE NF,34.81721568,-83.76670585,1082.654,2015-2017 Trail Inventory using Trimble GPS Equipment
204,SORO,GATC,Springer Mtn Shelter,Official A.T. Shelter,SH89,0,2,0,Georgia,FANNIN,Southern,Congressional District 9,Georgia Appalachian Trail Club,FEDERAL FEE - USFS CHATTAHOOCHEE NF,34.62933437,-84.19278239,1105.034,2015-2017 Trail Inventory using Trimble GPS Equipment
205,NERO,MATC,Baldpate Lean-to Shelter,Official A.T. Shelter,SH284,0,0,0,Maine,OXFORD,New England,Congressional District 2,Maine Appalachian Trail Club,STATE FEE - STATE OF MAINE,44.59845548,-70.91164157,0,2004-2013 Trail Inventory using Trimble GPS Equipment
206,NERO,MATC,The Birches Lean-to Shelter 1,Official A.T. Shelter,SH144,0,0,0,Maine,PISCATAQUIS,New England,Congressional District 2,Maine Appalachian Trail Club,STATE FEE - STATE OF MAINE,45.88675609,-68.99904261,0,2005 GPS Survey using Trimble GPS Equipment
207,NERO,MATC,The Birches Lean-to Shelter 2,Official A.T. Shelter,SH145,0,0,0,Maine,PISCATAQUIS,New England,Congressional District 2,Maine Appalachian Trail Club,STATE FEE - STATE OF MAINE,45.88683584,-68.99898143,0,2005 GPS Survey using Trimble GPS Equipment
208,NERO,RMC,The Perch Shelter,Official A.T. Shelter,NA,0,0,0,New Hampshire,COOS,New England,Congressional District 2,Randolph Mountain Club,FEDERAL FEE - USFS WHITE MTN NF,44.32405263,-71.31192151,0,Supplemental Data - Based on Aerial Imagery
209,NERO,AMC,Zealand Falls Hut,Additional A.T. Shelter,SH170,0,0,0,New Hampshire,GRAFTON,New England,Congressional District 2,Appalachian Mountain Club,FEDERAL FEE - USFS WHITE MTN NF,44.19592786,-71.49437366,0,2004-2013 Trail Inventory using Trimble GPS Equipment
210,NERO,AMC,Madison Spring Hut,Additional A.T. Shelter,SH285,0,0,0,New Hampshire,COOS,New England,Congressional District 2,Appalachian Mountain Club,FEDERAL FEE - USFS WHITE MTN NF,44.32790496,-71.28331479,0,2004-2013 Trail Inventory using Trimble GPS Equipment
211,NERO,AMC,Lake of the Clouds Hut,Additional A.T. Shelter,SH286,0,0,0,New Hampshire,COOS,New England,Congressional District 2,Appalachian Mountain Club,FEDERAL FEE - USFS WHITE MTN NF,44.25890704,-71.31897956,0,2004-2013 Trail Inventory using Trimble GPS Equipment
212,NERO,AMC,Carter Notch Hut,Additional A.T. Shelter,SH289,0,0,0,New Hampshire,COOS,New England,Congressional District 2,Appalachian Mountain Club,FEDERAL FEE - USFS WHITE MTN NF,44.25932963,-71.19540649,0,2004-2013 Trail Inventory using Trimble GPS Equipment
213,MARO,NYNJTC,Wiley Shelter,Official A.T. Shelter,SH306,0,0,0,New York,DUTCHESS,Mid-Atlantic,Congressional District 19,New York-New Jersey Trail Conference,FEDERAL EASEMENT - NPS APPA - OWNER = WESTCHESTER-PUTNAM COUNCIL BSA,41.63788095,-73.53279327,0,Supplemental GPS Data
214,MARO,NYNJTC,Telephone Pioneers Shelter,Official A.T. Shelter,SH197,0,0,0,New York,DUTCHESS,Mid-Atlantic,Congressional District 19,New York-New Jersey Trail Conference,FEDERAL FEE - NPS APPA,41.60384118,-73.61926845,0,Supplemental GPS Data
215,MARO,NYNJTC,Morgan Stewart Shelter,Official A.T. Shelter,SH196,0,0,0,New York,DUTCHESS,Mid-Atlantic,Congressional District 19,New York-New Jersey Trail Conference,FEDERAL FEE - NPS APPA,41.56453855,-73.69216648,0,Supplemental GPS Data
216,MARO,NYNJTC,RPH Shelter,Official A.T. Shelter,SH6,0,0,0,New York,DUTCHESS,Mid-Atlantic,Congressional District 18,New York-New Jersey Trail Conference,FEDERAL FEE - NPS APPA,41.51450286,-73.79280828,0,Supplemental GPS Data
217,MARO,NYNJTC,High Point Shelter,Official A.T. Shelter,SH5,1,0,0,New Jersey,SUSSEX,Mid-Atlantic,Congressional District 5,New York-New Jersey Trail Conference,STATE FEE - STATE OF NEW JERSEY - HIGH POINT SP,41.31575775,-74.65767379,0,Supplemental GPS Data
218,MARO,NYNJTC,West Mtn Shelter,Official A.T. Shelter,SH7,0,0,0,New York,ROCKLAND,Mid-Atlantic,Congressional District 17,New York-New Jersey Trail Conference,STATE FEE - STATE OF NEW YORK - BEAR MTN HARRIMAN SP,41.28244,-74.009193,0,Supplemental GPS Data
219,MARO,NYNJTC,William Brien Memorial Shelter,Official A.T. Shelter,SH8,0,0,0,New York,ORANGE,Mid-Atlantic,Congressional District 18,New York-New Jersey Trail Conference,STATE FEE - STATE OF NEW YORK - BEAR MTN HARRIMAN SP,41.2796,-74.059356,0,Supplemental GPS Data
220,MARO,NYNJTC,Rutherford Shelter,Official A.T. Shelter,SH69,1,0,0,New Jersey,SUSSEX,Mid-Atlantic,Congressional District 5,New York-New Jersey Trail Conference,STATE FEE - STATE OF NEW JERSEY - HIGH POINT SP,41.277145,-74.678099,0,Supplemental GPS Data
221,MARO,NYNJTC,Pochuck Mtn Shelter,Official A.T. Shelter,SH73,1,0,0,New Jersey,SUSSEX,Mid-Atlantic,Congressional District 5,New York-New Jersey Trail Conference,FEDERAL FEE - NPS APPA,41.27125987,-74.51534509,0,Supplemental GPS Data
222,MARO,NYNJTC,Wildcat Shelter,Official A.T. Shelter,SH304,0,0,0,New York,ORANGE,Mid-Atlantic,Congressional District 18,New York-New Jersey Trail Conference,FEDERAL FEE - NPS APPA,41.26826467,-74.26819803,0,Supplemental GPS Data
223,MARO,NYNJTC,Fingerboard Shelter,Official A.T. Shelter,SH314,0,0,0,New York,ORANGE,Mid-Atlantic,Congressional District 18,New York-New Jersey Trail Conference,STATE FEE - STATE OF NEW YORK - BEAR MTN HARRIMAN SP,41.26330713,-74.10404002,0,Supplemental GPS Data
224,MARO,NYNJTC,Mashipacong Shelter,Official A.T. Shelter,SH74,1,0,0,New Jersey,SUSSEX,Mid-Atlantic,Congressional District 5,New York-New Jersey Trail Conference,STATE FEE - STATE OF NEW JERSEY - HIGH POINT SP,41.25215868,-74.68635875,0,Supplemental GPS Data
225,MARO,NYNJTC,Wawayanda Shelter,Official A.T. Shelter,SH75,1,0,0,New Jersey,SUSSEX,Mid-Atlantic,Congressional District 5,New York-New Jersey Trail Conference,STATE FEE - STATE OF NEW JERSEY - WAYWAYANDA SP,41.202216,-74.39813711,0,Supplemental GPS Data
226,MARO,NYNJTC,Gren Anderson Shelter,Official A.T. Shelter,SH3,1,0,0,New Jersey,SUSSEX,Mid-Atlantic,Congressional District 5,New York-New Jersey Trail Conference,STATE FEE - STATE OF NEW JERSEY - STOKES SF,41.19948262,-74.75305004,0,Supplemental GPS Data
227,MARO,NYNJTC,Brink Rd Shelter,Official A.T. Shelter,SH4,1,0,0,New Jersey,SUSSEX,Mid-Atlantic,Congressional District 5,New York-New Jersey Trail Conference,STATE FEE - STATE OF NEW JERSEY - STOKES SF,41.15314,-74.83836,0,Supplemental GPS Data
228,MARO,WTC,Kirkridge Shelter,Official A.T. Shelter,SH167,0,0,0,Pennsylvania,NORTHAMPTON,Mid-Atlantic,Congressional District 17,Wilmington Trail Club,STATE FEE - STATE OF PENNSYLVANIA,40.93672,-75.1868,0,Supplemental GPS Data
229,MARO,AMC-DV,Leroy A. Smith Shelter,Official A.T. Shelter,SH166,0,0,0,Pennsylvania,MONROE,Mid-Atlantic,Congressional District 17,AMC - Delaware Valley Chapter,STATE FEE - STATE OF PENNSYLVANIA,40.83939,-75.35978,0,Supplemental GPS Data
230,MARO,KTA,George W. Outerbridge Shelter,Official A.T. Shelter,SH1,0,0,0,Pennsylvania,LEHIGH,Mid-Atlantic,Congressional District 15,Keystone Trails Association,FEDERAL FEE - NPS APPA,40.78222,-75.61778,0,Supplemental GPS Data
231,MARO,BMECC,Bake Oven Knob Shelter,Official A.T. Shelter,SH309,0,0,0,Pennsylvania,LEHIGH,Mid-Atlantic,Congressional District 15,Blue Mountain Eagle Climbing Club,STATE FEE - STATE OF PENNSYLVANIA - GAME COMMISSION - LANDS NO. 217,40.75411131,-75.72742867,0,Supplemental GPS Data
232,MARO,AHC,Allentown Shelter,Official A.T. Shelter,SH198,0,0,0,Pennsylvania,LEHIGH,Mid-Atlantic,Congressional District 15,Allentown Hiking Club,STATE FEE - STATE OF PENNSYLVANIA - GAME COMMISSION - LANDS NO. 217,40.68306,-75.87361,0,Supplemental GPS Data
233,MARO,BMECC,Eckville Shelter,Official A.T. Shelter,SH164,2,0,0,Pennsylvania,BERKS,Mid-Atlantic,Congressional District 15,Blue Mountain Eagle Climbing Club,FEDERAL FEE - NPS APPA,40.63374,-75.95826,0,Supplemental GPS Data
234,MARO,BMECC,Windsor Furnace Shelter,Official A.T. Shelter,SH162,0,0,0,Pennsylvania,BERKS,Mid-Atlantic,Congressional District 15,Blue Mountain Eagle Climbing Club,FEDERAL FEE - NPS APPA,40.59054,-75.9416,0,Supplemental GPS Data
235,MARO,BMECC,Eagles Nest Shelter,Official A.T. Shelter,SH310,0,0,0,Pennsylvania,SCHUYLKILL,Mid-Atlantic,Congressional District 17,Blue Mountain Eagle Climbing Club,STATE FEE - STATE OF PENNSYLVANIA - WEISER SF,40.54935213,-76.15275525,0,Supplemental GPS Data
236,MARO,BMECC,501 Shelter,Official A.T. Shelter,SH199,0,0,0,Pennsylvania,SCHUYLKILL,Mid-Atlantic,Congressional District 17,Blue Mountain Eagle Climbing Club,FEDERAL FEE - NPS APPA,40.51316542,-76.3468351,0,Supplemental GPS Data
237,MARO,BMECC,Rausch Gap Shelter,Official A.T. Shelter,SH165,0,0,0,Pennsylvania,LEBANON,Mid-Atlantic,Congressional District 15,Blue Mountain Eagle Climbing Club,STATE FEE - STATE OF PENNSYLVANIA - GAME COMMISSION - LANDS NO. 211,40.49864,-76.60047,0,Supplemental GPS Data
238,MARO,BMECC,William Penn Shelter,Official A.T. Shelter,SH9,0,0,0,Pennsylvania,BERKS,Mid-Atlantic,Congressional District 15,Blue Mountain Eagle Climbing Club,FEDERAL FEE - NPS APPA,40.49558483,-76.4144448,0,Supplemental GPS Data
240,MARO,YHC,Clarks Ferry Shelter,Official A.T. Shelter,SH307,1,0,0,Pennsylvania,DAUPHIN,Mid-Atlantic,Congressional District 11,York Hiking Club,FEDERAL FEE - NPS APPA,40.39222911,-76.99408044,0,Supplemental GPS Data
241,MARO,MCM,Cove Mtn (PA) Shelter,Official A.T. Shelter,SH18,1,0,0,Pennsylvania,PERRY,Mid-Atlantic,Congressional District 11,Mountain Club of Maryland,STATE FEE - STATE OF PENNSYLVANIA - GAME COMMISSION - LANDS NO. 170,40.36357029,-77.06759447,0,Supplemental GPS Data
242,MARO,MCM,Darlington Shelter,Official A.T. Shelter,SH168,0,0,0,Pennsylvania,PERRY,Mid-Atlantic,Congressional District 11,Mountain Club of Maryland,STATE FEE - STATE OF PENNSYLVANIA - GAME COMMISSION - LANDS NO. 170,40.30198,-77.08723,0,Supplemental GPS Data
243,MARO,MCM,Alec Kennedy Shelter,Official A.T. Shelter,SH12,0,0,0,Pennsylvania,CUMBERLAND,Mid-Atlantic,Congressional District 11,Mountain Club of Maryland,FEDERAL FEE - NPS APPA,40.11176158,-77.10436719,0,Supplemental GPS Data
244,MARO,MCM,James Fry at Tagg Run Shelter,Official A.T. Shelter,SH11,0,0,0,Pennsylvania,CUMBERLAND,Mid-Atlantic,Congressional District 11,Mountain Club of Maryland,STATE FEE - STATE OF PENNSYLVANIA - MICHAUX SF,40.06293666,-77.20643211,0,Supplemental GPS Data
245,MARO,PATC,Toms Run Shelter,Official A.T. Shelter,SH17,0,0,1,Pennsylvania,CUMBERLAND,Mid-Atlantic,Congressional District 11,Potomac Appalachian Trail Club,STATE FEE - STATE OF PENNSYLVANIA - MICHAUX SF,40.033833,-77.35675,0,Supplemental GPS Data
246,MARO,PATC,Birch Run Shelter,Official A.T. Shelter,SH13,0,0,2,Pennsylvania,CUMBERLAND,Mid-Atlantic,Congressional District 11,Potomac Appalachian Trail Club,STATE FEE - STATE OF PENNSYLVANIA - MICHAUX SF,39.98509896,-77.41975972,0,Supplemental GPS Data
247,MARO,PATC,Quarry Gap Shelter,Official A.T. Shelter,SH14,1,0,0,Pennsylvania,FRANKLIN,Mid-Atlantic,Congressional District 9,Potomac Appalachian Trail Club,STATE FEE - STATE OF PENNSYLVANIA - MICHAUX SF,39.9322,-77.48635,0,Supplemental GPS Data
248,MARO,PATC,Manassas Gap Shelter,Official A.T. Shelter,SH308,0,0,1,Virginia,FAUQUIER,Mid-Atlantic,Congressional District 5,Potomac Appalachian Trail Club,STATE FEE - STATE OF VIRGINIA - G. RICHARD THOMPSON WMA,38.93069445,-78.03268297,0,Supplemental GPS Data
249,MARO,PATC,Rocky Mtn Shelter 1,Official A.T. Shelter,SH10,0,0,0,Pennsylvania,FRANKLIN,Mid-Atlantic,Congressional District 9,Potomac Appalachian Trail Club,STATE FEE - STATE OF PENNSYLVANIA - MICHAUX SF,39.8685024,-77.50091054,0,Supplemental GPS Data
250,MARO,PATC,Rocky Mtn Shelter 2,Official A.T. Shelter,SH10,1,0,0,Pennsylvania,FRANKLIN,Mid-Atlantic,Congressional District 9,Potomac Appalachian Trail Club,STATE FEE - STATE OF PENNSYLVANIA - MICHAUX SF,39.86685024,-77.50091054,0,Supplemental GPS Data
251,MARO,PATC,Tumbling Run Shelter 1,Official A.T. Shelter,SH16,0,0,1,Pennsylvania,FRANKLIN,Mid-Atlantic,Congressional District 9,Potomac Appalachian Trail Club,STATE FEE - STATE OF PENNSYLVANIA - MICHAUX SF,39.804987,-77.47812,0,Supplemental GPS Data
252,MARO,PATC,Tumbling Run Shelter 2,Official A.T. Shelter,SH16,0,0,0,Pennsylvania,FRANKLIN,Mid-Atlantic,Congressional District 9,Potomac Appalachian Trail Club,STATE FEE - STATE OF PENNSYLVANIA - MICHAUX SF,39.804951,-77.47799,0,Supplemental GPS Data
253,MARO,PATC,Deer Lick Shelter 2,Official A.T. Shelter,SH19,0,0,0,Pennsylvania,FRANKLIN,Mid-Atlantic,Congressional District 9,Potomac Appalachian Trail Club,STATE FEE - STATE OF PENNSYLVANIA - MICHAUX SF,39.76621,-77.48496,0,Supplemental GPS Data
254,MARO,PATC,Deer Lick Shelter 1,Official A.T. Shelter,SH19,0,0,0,Pennsylvania,FRANKLIN,Mid-Atlantic,Congressional District 9,Potomac Appalachian Trail Club,STATE FEE - STATE OF PENNSYLVANIA - MICHAUX SF,39.76604,-77.48497,0,Supplemental GPS Data
255,MARO,PATC,Raven Rock Shelter,Official A.T. Shelter,NA,0,1,0,Maryland,WASHINGTON,Mid-Atlantic,Congressional District 6,Potomac Appalachian Trail Club,STATE FEE - STATE OF MARYLAND,39.67332,-77.52988,0,Supplemental GPS Data
256,MARO,PATC,Ensign Cowall Shelter,Official A.T. Shelter,SH67,0,0,1,Maryland,WASHINGTON,Mid-Atlantic,Congressional District 6,Potomac Appalachian Trail Club,STATE FEE - STATE OF MARYLAND,39.63099101,-77.55597004,0,Supplemental GPS Data
257,MARO,PATC,Rocky Run Shelter 2,Official A.T. Shelter,SH315,0,0,1,Maryland,WASHINGTON,Mid-Atlantic,Congressional District 6,Potomac Appalachian Trail Club,STATE FEE - STATE OF MARYLAND,39.46214354,-77.63106801,0,Supplemental GPS Data
258,MARO,PATC,Rocky Run Shelter 1,Official A.T. Shelter,SH71,0,0,1,Maryland,WASHINGTON,Mid-Atlantic,Congressional District 6,Potomac Appalachian Trail Club,STATE FEE - STATE OF MARYLAND,39.46092409,-77.63118213,0,Supplemental GPS Data
259,MARO,PATC,Ed Garvey Shelter,Official A.T. Shelter,SH72,0,0,0,Maryland,FREDERICK,Mid-Atlantic,Congressional District 6,Potomac Appalachian Trail Club,FEDERAL FEE - NPS APPA,39.35978788,-77.66197168,0,Supplemental GPS Data
260,MARO,PATC,David Lesser Memorial Shelter,Official A.T. Shelter,SH2,0,0,1,Virginia,LOUDOUN,Mid-Atlantic,Congressional District 10,Potomac Appalachian Trail Club,FEDERAL FEE - NPS APPA,39.22719915,-77.77939776,0,Supplemental GPS Data
261,MARO,PATC,Sam Moore Shelter,Official A.T. Shelter,SH103,0,0,0,Virginia,CLARKE,Mid-Atlantic,Congressional District 10,Potomac Appalachian Trail Club,FEDERAL FEE - NPS APPA,39.09063,-77.88657,0,Supplemental GPS Data
262,MARO,PATC,Rod Hollow Shelter,Official A.T. Shelter,SH195,0,0,1,Virginia,CLARKE,Mid-Atlantic,Congressional District 10,Potomac Appalachian Trail Club,FEDERAL FEE - NPS APPA,39.04759667,-77.94437129,0,Supplemental GPS Data
263,MARO,PATC,Jim and Molly Denton Shelter,Official A.T. Shelter,SH161,0,0,1,Virginia,WARREN,Mid-Atlantic,Congressional District 6,Potomac Appalachian Trail Club,FEDERAL FEE - NPS APPA,38.89015,-78.08306,0,Supplemental GPS Data
264,MARO,PATC,Tom Floyd Wayside Shelter,Official A.T. Shelter,SH163,0,0,0,Virginia,WARREN,Mid-Atlantic,Congressional District 6,Potomac Appalachian Trail Club,FEDERAL FEE - NPS APPA,38.85042,-78.16395,0,Supplemental GPS Data
265,MARO,PATC,Gravel Springs Hut Shelter,Official A.T. Shelter,SH100,1,0,1,Virginia,RAPPAHANNOCK,Mid-Atlantic,Congressional District 5,Potomac Appalachian Trail Club,FEDERAL FEE - NPS SHEN,38.76384,-78.23391,0,Supplemental GPS Data
266,MARO,PATC,Pass Mtn Hut Shelter,Official A.T. Shelter,SH101,1,0,1,Virginia,RAPPAHANNOCK,Mid-Atlantic,Congressional District 5,Potomac Appalachian Trail Club,FEDERAL FEE - NPS SHEN,38.67656,-78.31918,0,Supplemental GPS Data
267,MARO,PATC,Byrds Nest 3 Hut Shelter,Official A.T. Shelter,SH99,0,0,1,Virginia,PAGE,Mid-Atlantic,Congressional District 6,Potomac Appalachian Trail Club,FEDERAL FEE - NPS SHEN,38.6344,-78.32404,0,Supplemental GPS Data
268,MARO,PATC,Rock Spring Hut Shelter,Official A.T. Shelter,SH98,1,0,1,Virginia,PAGE,Mid-Atlantic,Congressional District 6,Potomac Appalachian Trail Club,FEDERAL FEE - NPS SHEN,38.55349,-78.40858,0,Supplemental GPS Data
269,MARO,PATC,Bearfence Mtn Hut Shelter,Official A.T. Shelter,SH305,1,0,1,Virginia,GREENE,Mid-Atlantic,Congressional District 5,Potomac Appalachian Trail Club,FEDERAL FEE - NPS SHEN,38.44411936,-78.47047692,0,Supplemental GPS Data
270,MARO,PATC,Hightop Hut Shelter,Official A.T. Shelter,SH311,0,0,2,Virginia,ROCKINGHAM,Mid-Atlantic,Congressional District 6,Potomac Appalachian Trail Club,FEDERAL FEE - NPS SHEN,38.33313949,-78.55858719,0,Supplemental GPS Data
271,MARO,PATC,Pinefield Hut Shelter,Official A.T. Shelter,SH96,0,0,2,Virginia,GREENE,Mid-Atlantic,Congressional District 5,Potomac Appalachian Trail Club,FEDERAL FEE - NPS SHEN,38.29052,-78.64603,0,Supplemental GPS Data
272,MARO,PATC,Blackrock Hut Shelter,Official A.T. Shelter,SH312,0,0,1,Virginia,ALBEMARLE,Mid-Atlantic,Congressional District 5,Potomac Appalachian Trail Club,FEDERAL FEE - NPS SHEN,38.21419408,-78.74318936,0,Supplemental GPS Data
273,MARO,PATC,Calf Mtn Shelter,Official A.T. Shelter,SH313,0,0,1,Virginia,AUGUSTA,Mid-Atlantic,Congressional District 6,Potomac Appalachian Trail Club,FEDERAL FEE - NPS APPA,38.08551869,-78.7858337,0,Supplemental GPS Data
274,NERO,GMC,Old Job Shelter,Official A.T. Shelter,SH154,0,0,0,Vermont,RUTLAND,New England,Congressional District (at Large),Green Mountain Club,FEDERAL FEE - USFS GREEN MTN NF,43.35414783,-72.92848512,0,Supplemental GPS Data
275,NERO,AMC,Greenleaf Hut,Additional A.T. Shelter,SH137,0,0,0,New Hampshire,GRAFTON,New England,Congressional District 2,Appalachian Mountain Club,FEDERAL FEE - USFS WHITE MTN NF,44.16025147,-71.66022415,0,Supplemental Data - Digitized
276,NERO,AMC,Lonesome Lake Hut,Additional A.T. Shelter,SH138,0,0,0,New Hampshire,GRAFTON,New England,Congressional District 2,Appalachian Mountain Club,FEDERAL FEE - USFS WHITE MTN NF,44.13852169,-71.70317853,0,Supplemental Data - Digitized
277,NERO,AMC,Galehead Hut,Additional A.T. Shelter,SH139,0,0,0,New Hampshire,GRAFTON,New England,Congressional District 2,Appalachian Mountain Club,FEDERAL FEE - USFS WHITE MTN NF,44.18796529,-71.56887957,0,Supplemental Data - Digitized
278,NERO,AMC,Mizpah Spring Hut,Additional A.T. Shelter,SH140,0,0,0,New Hampshire,COOS,New England,Congressional District 2,Appalachian Mountain Club,FEDERAL FEE - USFS WHITE MTN NF,44.21940369,-71.36962974,0,Supplemental Data - Digitized
279,NERO,MATC,Nahmakanta Stream Lean-to Shelter,Official A.T. Shelter,NA,0,0,0,Maine,PISCATAQUIS,New England,Congressional District 2,Maine Appalachian Trail Club,FEDERAL FEE - NPS APPA,45.73537144,-69.05914187,0,Supplemental Data - Based on Inventory Update Form
280,MARO,PATC,Whiskey Hollow Shelter,Official A.T. Shelter,NA,0,0,1,Virginia,FAUQUIER,Mid-Atlantic,Congressional District 5,Potomac Appalachian Trail Club,FEDERAL FEE - NPS APPA,38.96924,-77.99614,0,Supplemental Data - Based on Inventory Update Form
